[{"OBJECT_NAME":"STARLINK-4626","OBJECT_ID":"2022-105AP","EPOCH":"2026-03-09T15:47:46.768416","MEAN_MOTION":15.0126201,"ECCENTRICITY":0.00022731,"INCLINATION":97.6025,"RA_OF_ASC_NODE":310.1773,"ARG_OF_PERICENTER":61.7447,"MEAN_ANOMALY":298.4007,"EPHEMERIS_TYPE":0,"CLASSIFICATION_TYPE":"U","NORAD_CAT_ID":53685,"ELEMENT_SET_NO":999,"REV_AT_EPOCH":19323,"BSTAR":-4.978778e-6,"MEAN_MOTION_DOT":-1.22e-6,"MEAN_MOTION_DDOT":0},{"OBJECT_NAME":"PEGASUS DEB","OBJECT_ID":"1994-029AFE","EPOCH":"2026-03-09T22:01:13.596672","MEAN_MOTION":14.67197331,"ECCENTRICITY":0.01795257,"INCLINATION":81.944,"RA_OF_ASC_NODE":137.8868,"ARG_OF_PERICENTER":239.0776,"MEAN_ANOMALY":119.2676,"EPHEMERIS_TYPE":0,"CLASSIFICATION_TYPE":"U","NORAD_CAT_ID":39319,"ELEMENT_SET_NO":999,"REV_AT_EPOCH":26377,"BSTAR":0.00029247934,"MEAN_MOTION_DOT":2.119e-5,"MEAN_MOTION_DDOT":0}]
